{"type":"FeatureCollection","name":"pangyo_dong_boundaries_optimized","sourceFiles":["data/daejangdong.wfs.xml","data/baekhyeondong.wfs.xml","data/seogundong.wfs.xml","data/unjungdong.wfs.xml","data/pangyodong.wfs.xml","data/hasanundong.wfs.xml"],"features":[{"type":"Feature","properties":{"emd_cd":"41135116","full_nm":"경기도 성남시 분당구 대장동","emd_kor_nm":"대장동","emd_eng_nm":"Daejang-dong","name":"대장동","source_file":"data/daejangdong.wfs.xml"},"geometry":{"type":"Polygon","coordinates":[[[127.060662,37.380946],[127.061535,37.380227],[127.062159,37.37997],[127.062424,37.379861],[127.062664,37.379718],[127.063391,37.379416],[127.063677,37.379395],[127.064012,37.37942],[127.064342,37.379442],[127.064477,37.379628],[127.065219,37.379833],[127.065759,37.379576],[127.06613,37.379437],[127.066958,37.37957],[127.067468,37.379461],[127.067682,37.379416],[127.067931,37.379245],[127.068446,37.379155],[127.068952,37.378997],[127.069279,37.378873],[127.069666,37.378756],[127.069939,37.378644],[127.070184,37.378471],[127.070726,37.378254],[127.071222,37.377824],[127.071897,37.377627],[127.072272,37.377428],[127.072578,37.37731],[127.073348,37.37722],[127.073601,37.376829],[127.073838,37.376446],[127.074048,37.376069],[127.074127,37.375881],[127.074303,37.375405],[127.075258,37.375206],[127.075347,37.37519],[127.07536,37.375232],[127.075471,37.375586],[127.075632,37.375528],[127.076032,37.375375],[127.076105,37.37531],[127.076168,37.375253],[127.076406,37.375038],[127.076428,37.375027],[127.076649,37.374921],[127.076734,37.374897],[127.077055,37.374801],[127.077095,37.374789],[127.07745,37.374639],[127.077566,37.374593],[127.077776,37.374569],[127.078048,37.374546],[127.078101,37.374499],[127.078329,37.374374],[127.079026,37.374692],[127.079104,37.374761],[127.079409,37.374395],[127.079778,37.37379],[127.080767,37.373525],[127.080795,37.373518],[127.080794,37.373494],[127.080755,37.373056],[127.080638,37.372704],[127.080375,37.372667],[127.07979,37.372242],[127.07986,37.371688],[127.079522,37.371328],[127.079701,37.371118],[127.080019,37.370517],[127.080135,37.370266],[127.08012,37.369907],[127.079962,37.369658],[127.079821,37.369306],[127.079763,37.368618],[127.079835,37.368271],[127.079173,37.368072],[127.078824,37.367866],[127.078499,37.36768],[127.07804,37.367496],[127.077645,37.367109],[127.077519,37.366759],[127.077276,37.366577],[127.077538,37.366336],[127.077611,37.366255],[127.077931,37.365394],[127.078126,37.365127],[127.078004,37.364962],[127.078009,37.36459],[127.077597,37.364153],[127.077079,37.363641],[127.07694,37.363493],[127.076897,37.363461],[127.076717,37.363311],[127.076552,37.362934],[127.076488,37.36285],[127.076261,37.362484],[127.076008,37.362354],[127.075943,37.362171],[127.075997,37.361947],[127.075835,37.361443],[127.075125,37.36087],[127.075166,37.360374],[127.075121,37.360333],[127.074623,37.359873],[127.074565,37.359831],[127.07439,37.359704],[127.074177,37.35927],[127.074322,37.3588],[127.073804,37.358431],[127.072533,37.357561],[127.072467,37.35751],[127.072351,37.357419],[127.072279,37.357365],[127.072262,37.357346],[127.0721,37.357212],[127.071841,37.357394],[127.071838,37.357396],[127.07176,37.357431],[127.071544,37.35753],[127.071422,37.357585],[127.071219,37.357678],[127.070907,37.357818],[127.070593,37.357965],[127.07058,37.357971],[127.070598,37.357987],[127.070335,37.358086],[127.069978,37.358227],[127.069964,37.358233],[127.06964,37.358345],[127.069313,37.358461],[127.068964,37.35858],[127.068903,37.358602],[127.068839,37.358624],[127.06879,37.358639],[127.068531,37.358712],[127.068524,37.358714],[127.068242,37.358786],[127.067954,37.358864],[127.067904,37.358878],[127.067741,37.35892],[127.067609,37.358957],[127.067292,37.359045],[127.067281,37.359049],[127.067032,37.359157],[127.066625,37.359345],[127.0666,37.359352],[127.066426,37.359392],[127.066178,37.359449],[127.066042,37.359483],[127.065877,37.359522],[127.06585,37.359529],[127.065596,37.359595],[127.06524,37.359689],[127.064942,37.359768],[127.064934,37.359771],[127.06463,37.359879],[127.064168,37.360044],[127.064163,37.360045],[127.063942,37.360134],[127.063817,37.360187],[127.063186,37.360441],[127.063178,37.360442],[127.062851,37.360446],[127.062488,37.360446],[127.062039,37.360393],[127.062031,37.360393],[127.061058,37.360685],[127.061055,37.360686],[127.060716,37.360728],[127.060377,37.360771],[127.060356,37.360772],[127.059916,37.360774],[127.059544,37.360779],[127.059307,37.360778],[127.05898,37.36077],[127.05863,37.360761],[127.058134,37.360746],[127.058132,37.360746],[127.057954,37.360731],[127.05774,37.360706],[127.057721,37.360702],[127.057212,37.360538],[127.056851,37.360421],[127.056828,37.360413],[127.056037,37.360082],[127.055732,37.359956],[127.055727,37.359954],[127.055547,37.359946],[127.055239,37.359964],[127.055228,37.359964],[127.055052,37.359995],[127.054291,37.360125],[127.054289,37.360126],[127.053938,37.360326],[127.053667,37.360479],[127.053659,37.360484],[127.053545,37.360573],[127.053263,37.360789],[127.053093,37.360924],[127.053092,37.360927],[127.052959,37.361344],[127.052957,37.361352],[127.052935,37.361685],[127.052896,37.362136],[127.052897,37.362137],[127.052898,37.362144],[127.053044,37.362388],[127.053177,37.362614],[127.053179,37.362621],[127.053184,37.36264],[127.05319,37.363163],[127.053181,37.363197],[127.052686,37.363775],[127.052668,37.363792],[127.052398,37.364017],[127.052369,37.364036],[127.051971,37.364257],[127.051703,37.364403],[127.051511,37.364513],[127.051215,37.36468],[127.050891,37.364866],[127.050864,37.365014],[127.050863,37.365237],[127.050929,37.365345],[127.051131,37.365544],[127.051289,37.365879],[127.051201,37.366396],[127.05119,37.366491],[127.051176,37.366567],[127.051141,37.3667],[127.051056,37.366837],[127.050994,37.366952],[127.050896,37.367086],[127.050885,37.367184],[127.050959,37.367361],[127.051157,37.367539],[127.051248,37.367773],[127.051316,37.367941],[127.05136,37.368103],[127.051369,37.368213],[127.051281,37.368378],[127.051263,37.368739],[127.051339,37.36921],[127.051349,37.369283],[127.051259,37.369417],[127.051293,37.369401],[127.051317,37.369418],[127.051306,37.36948],[127.051388,37.36952],[127.051391,37.369932],[127.05108,37.371015],[127.051397,37.371428],[127.051337,37.372915],[127.05132,37.373486],[127.051714,37.374682],[127.052281,37.375265],[127.052275,37.376156],[127.052647,37.376588],[127.052391,37.376965],[127.052434,37.377449],[127.052306,37.377928],[127.052501,37.378524],[127.053156,37.378883],[127.053273,37.378934],[127.053422,37.379003],[127.054018,37.37925],[127.054981,37.379559],[127.056213,37.38009],[127.056678,37.379857],[127.056886,37.379811],[127.057232,37.379777],[127.05756,37.379687],[127.057965,37.379601],[127.058117,37.379725],[127.058413,37.379963],[127.058615,37.379999],[127.058752,37.380336],[127.058883,37.380653],[127.059176,37.380787],[127.05951,37.380987],[127.059854,37.381055],[127.059894,37.381065],[127.059918,37.381061],[127.059934,37.381059],[127.060662,37.380946]]]}},{"type":"Feature","properties":{"emd_cd":"41135110","full_nm":"경기도 성남시 분당구 백현동","emd_kor_nm":"백현동","emd_eng_nm":"Baekhyeon-dong","name":"백현동","source_file":"data/baekhyeondong.wfs.xml"},"geometry":{"type":"Polygon","coordinates":[[[127.100311,37.383733],[127.100274,37.383678],[127.100338,37.383187],[127.100325,37.382892],[127.100473,37.382859],[127.100469,37.382778],[127.100529,37.382756],[127.100581,37.382436],[127.100594,37.382235],[127.100426,37.382242],[127.100412,37.382108],[127.10072,37.382094],[127.100901,37.382079],[127.100941,37.382094],[127.101032,37.382078],[127.101172,37.38207],[127.101242,37.382077],[127.101322,37.382058],[127.101552,37.382089],[127.101711,37.382118],[127.101811,37.382117],[127.101916,37.382101],[127.103059,37.381643],[127.103062,37.384055],[127.103063,37.384764],[127.102228,37.389509],[127.101541,37.391644],[127.101544,37.393773],[127.10115,37.394588],[127.101551,37.394876],[127.10175,37.395019],[127.101784,37.395052],[127.101794,37.395065],[127.101801,37.395079],[127.101805,37.395093],[127.101808,37.395108],[127.101804,37.395138],[127.101799,37.395152],[127.101752,37.395218],[127.101711,37.395273],[127.101746,37.395301],[127.101782,37.395325],[127.10182,37.395346],[127.101875,37.395369],[127.101877,37.395368],[127.101895,37.395345],[127.101959,37.395366],[127.102002,37.395376],[127.102047,37.395381],[127.102091,37.395384],[127.102136,37.395384],[127.102181,37.39538],[127.102225,37.395374],[127.102269,37.395364],[127.102307,37.395354],[127.102353,37.39534],[127.102433,37.395307],[127.102592,37.395228],[127.103185,37.394904],[127.103357,37.39481],[127.103512,37.394783],[127.103718,37.394737],[127.103893,37.394698],[127.10396,37.394695],[127.1041,37.394678],[127.104222,37.394631],[127.10432,37.394586],[127.104337,37.394576],[127.104761,37.395069],[127.105552,37.394638],[127.106125,37.394262],[127.106088,37.394414],[127.106562,37.394999],[127.106856,37.395498],[127.106912,37.395613],[127.106989,37.395706],[127.106996,37.395721],[127.107001,37.395724],[127.107066,37.395732],[127.107383,37.395772],[127.107424,37.396046],[127.107173,37.396055],[127.107159,37.396056],[127.107115,37.396057],[127.107245,37.396537],[127.10739,37.396393],[127.107667,37.396393],[127.1078,37.396366],[127.109366,37.396365],[127.109365,37.396049],[127.109915,37.396073],[127.110449,37.396073],[127.110488,37.396056],[127.110502,37.396042],[127.110531,37.395991],[127.110559,37.395963],[127.110595,37.395941],[127.110636,37.395927],[127.111816,37.395922],[127.11188,37.395938],[127.111932,37.395972],[127.111956,37.396002],[127.111975,37.396039],[127.111989,37.396053],[127.112028,37.396071],[127.112644,37.396073],[127.112724,37.396009],[127.112722,37.394927],[127.116636,37.394923],[127.116666,37.3952],[127.118353,37.395199],[127.118353,37.395084],[127.118353,37.394922],[127.120329,37.39492],[127.120329,37.394917],[127.120379,37.39441],[127.120386,37.394246],[127.120394,37.394084],[127.120398,37.393813],[127.120398,37.393597],[127.120393,37.393434],[127.120383,37.393272],[127.120367,37.39311],[127.12034,37.39295],[127.120307,37.39279],[127.120242,37.392469],[127.120171,37.392151],[127.120082,37.391824],[127.119998,37.391548],[127.119901,37.391228],[127.119826,37.391056],[127.119714,37.390797],[127.119648,37.390721],[127.11955,37.390591],[127.119313,37.390235],[127.119129,37.389948],[127.119032,37.389807],[127.11893,37.389668],[127.118825,37.38953],[127.118717,37.389394],[127.118489,37.389128],[127.118369,37.388998],[127.116821,37.387425],[127.116354,37.38695],[127.11489,37.385309],[127.114456,37.384867],[127.114025,37.384386],[127.11366,37.38398],[127.113057,37.383307],[127.112964,37.383319],[127.112849,37.383333],[127.112746,37.383346],[127.112594,37.383366],[127.112501,37.383378],[127.112448,37.383384],[127.112425,37.383387],[127.112402,37.38339],[127.112315,37.383401],[127.112254,37.383409],[127.112239,37.383411],[127.112175,37.383419],[127.112007,37.38344],[127.111984,37.383443],[127.111697,37.38348],[127.111679,37.383482],[127.11165,37.383486],[127.111616,37.38349],[127.111492,37.383506],[127.111432,37.383514],[127.111335,37.383526],[127.111281,37.383533],[127.111244,37.383537],[127.110486,37.383626],[127.110178,37.383662],[127.110135,37.383674],[127.110122,37.383675],[127.109875,37.383698],[127.109648,37.383718],[127.109581,37.383725],[127.109153,37.383742],[127.109049,37.383746],[127.108914,37.383578],[127.108883,37.383539],[127.108753,37.383379],[127.10872,37.383338],[127.108669,37.383275],[127.108561,37.383141],[127.108462,37.383018],[127.108215,37.382711],[127.108012,37.382455],[127.107964,37.382394],[127.107689,37.382046],[127.107577,37.381906],[127.107113,37.381327],[127.106899,37.381059],[127.106791,37.381098],[127.106226,37.3813],[127.105955,37.381747],[127.105538,37.382436],[127.105256,37.382561],[127.104743,37.38279],[127.104405,37.382839],[127.103791,37.382926],[127.103508,37.382967],[127.103503,37.382191],[127.103502,37.382003],[127.103495,37.381667],[127.103497,37.381649],[127.103496,37.381548],[127.103495,37.381491],[127.103495,37.381467],[127.103494,37.381365],[127.103471,37.381179],[127.103473,37.380886],[127.103472,37.380867],[127.103443,37.379953],[127.103447,37.379913],[127.103461,37.379742],[127.103473,37.379622],[127.103482,37.379528],[127.103488,37.379459],[127.10349,37.379434],[127.103478,37.379416],[127.1035,37.379273],[127.10351,37.379207],[127.103613,37.378181],[127.103577,37.378023],[127.103587,37.37796],[127.103595,37.377914],[127.103605,37.377851],[127.103629,37.377766],[127.103633,37.377753],[127.103636,37.377595],[127.10364,37.377376],[127.103631,37.377015],[127.103628,37.376916],[127.103628,37.376912],[127.103593,37.376912],[127.103515,37.376913],[127.103495,37.376567],[127.103493,37.376518],[127.103482,37.37645],[127.103476,37.376405],[127.103448,37.37622],[127.103453,37.376012],[127.103468,37.375366],[127.103475,37.37504],[127.103457,37.374977],[127.103454,37.374979],[127.103291,37.37505],[127.103192,37.375137],[127.103116,37.375173],[127.103045,37.375194],[127.103013,37.375215],[127.103,37.375221],[127.102907,37.375241],[127.102783,37.375274],[127.102595,37.375329],[127.102487,37.37536],[127.102483,37.375355],[127.102466,37.375294],[127.102445,37.375313],[127.102371,37.375291],[127.102317,37.375247],[127.102291,37.375225],[127.102207,37.37525],[127.102172,37.375261],[127.102167,37.375273],[127.102118,37.37541],[127.102174,37.375686],[127.102142,37.376289],[127.102055,37.376605],[127.101955,37.376696],[127.10188,37.376762],[127.101859,37.376781],[127.101854,37.376723],[127.101788,37.376866],[127.101732,37.377024],[127.10172,37.377204],[127.10168,37.377203],[127.101691,37.376999],[127.101756,37.376771],[127.101743,37.376768],[127.101699,37.37676],[127.101608,37.376763],[127.101584,37.376764],[127.10154,37.376744],[127.101254,37.376852],[127.101089,37.376946],[127.100791,37.376931],[127.100651,37.376835],[127.10062,37.376813],[127.10046,37.376776],[127.100226,37.376643],[127.100015,37.376517],[127.099875,37.376432],[127.099659,37.376411],[127.099511,37.376433],[127.09944,37.376422],[127.099163,37.376308],[127.09875,37.376258],[127.09872,37.376261],[127.098299,37.376312],[127.097953,37.376442],[127.097513,37.376301],[127.096972,37.376196],[127.096776,37.376179],[127.096466,37.376171],[127.0962,37.376313],[127.096156,37.376335],[127.095709,37.376307],[127.09559,37.376277],[127.095444,37.376242],[127.095258,37.376197],[127.094902,37.37611],[127.094795,37.376081],[127.094554,37.376023],[127.094377,37.37595],[127.094185,37.375645],[127.094097,37.375508],[127.093679,37.375495],[127.093397,37.375773],[127.093219,37.376309],[127.092856,37.376409],[127.092657,37.376667],[127.092599,37.376773],[127.092106,37.376956],[127.09151,37.376889],[127.090601,37.376862],[127.090104,37.377195],[127.089732,37.377334],[127.089596,37.377458],[127.089241,37.377371],[127.088738,37.377133],[127.088375,37.376865],[127.087746,37.37671],[127.087126,37.376732],[127.086755,37.376487],[127.08569,37.376376],[127.085152,37.376305],[127.084936,37.376203],[127.084763,37.375983],[127.084668,37.375727],[127.084419,37.375631],[127.083812,37.375459],[127.083473,37.375126],[127.083392,37.374835],[127.083028,37.37464],[127.082792,37.374529],[127.082484,37.374315],[127.082086,37.373989],[127.081884,37.37384],[127.081679,37.37374],[127.081451,37.373657],[127.081242,37.373642],[127.080822,37.373527],[127.080795,37.373518],[127.080767,37.373525],[127.079778,37.37379],[127.079409,37.374395],[127.079104,37.374761],[127.078688,37.375245],[127.078476,37.376061],[127.078458,37.376123],[127.078783,37.376421],[127.078917,37.376882],[127.079016,37.377372],[127.079042,37.377697],[127.079047,37.377757],[127.079064,37.377849],[127.079116,37.378048],[127.079212,37.378079],[127.079326,37.378116],[127.079398,37.378139],[127.079539,37.37818],[127.079762,37.3784],[127.079838,37.378479],[127.079827,37.378865],[127.080235,37.379207],[127.080896,37.379992],[127.081833,37.380932],[127.082253,37.381326],[127.082932,37.381781],[127.083243,37.382043],[127.08373,37.382406],[127.083896,37.382472],[127.084081,37.382418],[127.084447,37.382538],[127.084478,37.382548],[127.084786,37.382646],[127.085509,37.382658],[127.086315,37.38309],[127.086393,37.383144],[127.086427,37.383154],[127.086417,37.383193],[127.086447,37.383203],[127.086565,37.383203],[127.086592,37.383211],[127.087102,37.383368],[127.087114,37.383367],[127.087166,37.383362],[127.087194,37.383358],[127.087655,37.383309],[127.087759,37.383297],[127.087844,37.383288],[127.088064,37.383275],[127.088432,37.383251],[127.088473,37.383275],[127.088692,37.383401],[127.088778,37.383569],[127.088798,37.383576],[127.088934,37.383621],[127.089089,37.383674],[127.089161,37.3837],[127.089257,37.383744],[127.089546,37.383726],[127.089441,37.38381],[127.089315,37.383906],[127.089357,37.383908],[127.089408,37.383938],[127.089495,37.38415],[127.089608,37.384286],[127.089872,37.38448],[127.090196,37.384878],[127.090457,37.384806],[127.090722,37.384891],[127.090883,37.384916],[127.091075,37.384765],[127.09116,37.384697],[127.091482,37.384663],[127.091623,37.384671],[127.091774,37.384577],[127.091866,37.384405],[127.092354,37.384536],[127.092909,37.384359],[127.093022,37.384421],[127.093434,37.384649],[127.093562,37.384637],[127.0945,37.384826],[127.094871,37.384671],[127.095039,37.384638],[127.095077,37.384636],[127.095258,37.384636],[127.095573,37.384778],[127.096073,37.3849],[127.096545,37.384539],[127.096968,37.384408],[127.097496,37.384365],[127.098188,37.384289],[127.098441,37.384067],[127.09862,37.383655],[127.098936,37.383617],[127.099438,37.383894],[127.099624,37.383851],[127.099945,37.383794],[127.100254,37.383704],[127.100275,37.383714],[127.100311,37.383733]]]}},{"type":"Feature","properties":{"emd_cd":"41135117","full_nm":"경기도 성남시 분당구 석운동","emd_kor_nm":"석운동","emd_eng_nm":"Seogun-dong","name":"석운동","source_file":"data/seogundong.wfs.xml"},"geometry":{"type":"Polygon","coordinates":[[[127.043548,37.38896],[127.043704,37.388888],[127.044305,37.388917],[127.045094,37.388665],[127.045472,37.388583],[127.045936,37.388129],[127.046323,37.387908],[127.046862,37.387561],[127.04698,37.387267],[127.047401,37.387124],[127.047819,37.386993],[127.048322,37.386913],[127.048688,37.386961],[127.048977,37.38691],[127.048994,37.386886],[127.049021,37.386842],[127.049074,37.386816],[127.049317,37.386596],[127.050012,37.386247],[127.050396,37.386323],[127.050966,37.386436],[127.051599,37.386574],[127.051695,37.385949],[127.051714,37.385673],[127.051752,37.385621],[127.051782,37.385593],[127.05215,37.385115],[127.052426,37.385009],[127.052532,37.384817],[127.052594,37.384459],[127.052819,37.384248],[127.053055,37.38404],[127.053826,37.384071],[127.054222,37.38428],[127.054556,37.384433],[127.055144,37.383962],[127.055167,37.383559],[127.055193,37.383151],[127.055522,37.382738],[127.055682,37.382684],[127.055858,37.382618],[127.056145,37.382502],[127.056163,37.382113],[127.056788,37.3813],[127.057094,37.381348],[127.057719,37.380897],[127.058251,37.380785],[127.058883,37.380653],[127.058752,37.380336],[127.058615,37.379999],[127.058413,37.379963],[127.058117,37.379725],[127.057965,37.379601],[127.05756,37.379687],[127.057232,37.379777],[127.056886,37.379811],[127.056678,37.379857],[127.056213,37.38009],[127.054981,37.379559],[127.054018,37.37925],[127.053422,37.379003],[127.053273,37.378934],[127.053156,37.378883],[127.052501,37.378524],[127.052306,37.377928],[127.052434,37.377449],[127.052391,37.376965],[127.052647,37.376588],[127.052275,37.376156],[127.052281,37.375265],[127.051714,37.374682],[127.05132,37.373486],[127.051337,37.372915],[127.051397,37.371428],[127.05108,37.371015],[127.051391,37.369932],[127.051388,37.36952],[127.051306,37.36948],[127.051317,37.369418],[127.051293,37.369401],[127.051259,37.369417],[127.051349,37.369283],[127.051339,37.36921],[127.051263,37.368739],[127.051281,37.368378],[127.051369,37.368213],[127.05136,37.368103],[127.051316,37.367941],[127.051248,37.367773],[127.051157,37.367539],[127.050959,37.367361],[127.050885,37.367184],[127.050896,37.367086],[127.050994,37.366952],[127.051056,37.366837],[127.051141,37.3667],[127.051176,37.366567],[127.05119,37.366491],[127.051201,37.366396],[127.051289,37.365879],[127.051131,37.365544],[127.050929,37.365345],[127.050863,37.365237],[127.050864,37.365014],[127.050891,37.364866],[127.050869,37.364875],[127.050865,37.364876],[127.050752,37.364883],[127.050537,37.364897],[127.050303,37.364911],[127.050286,37.364928],[127.050216,37.365044],[127.050133,37.365165],[127.050118,37.365176],[127.049994,37.365211],[127.049891,37.365244],[127.049843,37.365256],[127.049824,37.365261],[127.049542,37.365314],[127.049518,37.365321],[127.0495,37.365322],[127.049484,37.365332],[127.049341,37.36546],[127.049298,37.3655],[127.04908,37.365693],[127.049051,37.365714],[127.048857,37.365826],[127.048823,37.365846],[127.048574,37.365988],[127.048554,37.365999],[127.048427,37.366061],[127.048316,37.366115],[127.048115,37.366209],[127.047998,37.366267],[127.047922,37.366303],[127.047781,37.366358],[127.047676,37.366397],[127.047485,37.366469],[127.047421,37.366494],[127.04724,37.366566],[127.047232,37.366574],[127.047174,37.366655],[127.047092,37.366771],[127.047005,37.366881],[127.046997,37.366892],[127.046969,37.366934],[127.046838,37.367108],[127.046828,37.367128],[127.046782,37.367281],[127.046735,37.367429],[127.046722,37.367458],[127.04663,37.367588],[127.046584,37.367653],[127.046537,37.367717],[127.046516,37.367749],[127.04648,37.367802],[127.046457,37.367826],[127.046434,37.367849],[127.046353,37.367929],[127.046345,37.367949],[127.046309,37.368102],[127.046298,37.368167],[127.046293,37.368186],[127.046082,37.368297],[127.046073,37.368298],[127.045943,37.368314],[127.045922,37.368314],[127.045888,37.368308],[127.04571,37.368297],[127.045703,37.368297],[127.045656,37.368318],[127.045394,37.368452],[127.045384,37.368456],[127.045252,37.368496],[127.045094,37.368545],[127.04509,37.36855],[127.045033,37.368631],[127.044978,37.368713],[127.044962,37.368731],[127.044839,37.368817],[127.044834,37.36882],[127.044581,37.368811],[127.044568,37.368811],[127.044378,37.368803],[127.044243,37.368801],[127.044242,37.368783],[127.044197,37.368785],[127.044084,37.368789],[127.044055,37.368792],[127.044009,37.368808],[127.043659,37.368906],[127.043628,37.368917],[127.043463,37.368979],[127.043449,37.368984],[127.043348,37.36902],[127.043328,37.369024],[127.043135,37.369035],[127.043023,37.36904],[127.042977,37.369041],[127.04291,37.369041],[127.042797,37.369032],[127.04274,37.369032],[127.042718,37.369031],[127.042583,37.369025],[127.042436,37.369027],[127.042355,37.369033],[127.042339,37.369035],[127.042016,37.369117],[127.041883,37.369158],[127.041665,37.369237],[127.041652,37.369241],[127.041356,37.369304],[127.041082,37.369365],[127.040908,37.369371],[127.040902,37.369371],[127.040313,37.369407],[127.039921,37.369355],[127.039898,37.369354],[127.039713,37.369371],[127.039501,37.369385],[127.039497,37.369386],[127.039327,37.369442],[127.038955,37.369578],[127.038667,37.369627],[127.038347,37.369673],[127.038331,37.369675],[127.038279,37.369697],[127.038248,37.369744],[127.038145,37.369804],[127.038057,37.369858],[127.038001,37.369886],[127.037892,37.369953],[127.037849,37.369974],[127.037798,37.370004],[127.037738,37.370038],[127.037548,37.370149],[127.03748,37.370192],[127.037468,37.370191],[127.037267,37.370183],[127.03726,37.370183],[127.036929,37.370317],[127.036759,37.370388],[127.0367,37.370411],[127.036652,37.370425],[127.036416,37.370447],[127.036325,37.370457],[127.036167,37.370475],[127.035988,37.37049],[127.035984,37.37049],[127.035701,37.370599],[127.03559,37.370641],[127.03558,37.370644],[127.035463,37.370668],[127.035455,37.37067],[127.035454,37.37067],[127.035342,37.370627],[127.035306,37.37061],[127.035297,37.370604],[127.035177,37.370545],[127.035152,37.370535],[127.03503,37.370533],[127.034917,37.370535],[127.034912,37.370535],[127.034773,37.370611],[127.034691,37.370659],[127.03468,37.37067],[127.034664,37.370681],[127.034613,37.37076],[127.034541,37.370875],[127.034539,37.370879],[127.034507,37.370948],[127.034465,37.370984],[127.034254,37.371045],[127.034008,37.371121],[127.033974,37.371129],[127.033875,37.371152],[127.033625,37.371219],[127.033611,37.371221],[127.033414,37.371247],[127.033289,37.371263],[127.033154,37.371281],[127.033115,37.371286],[127.033083,37.371293],[127.033016,37.371311],[127.032981,37.371322],[127.032933,37.371344],[127.03287,37.371365],[127.0327,37.371422],[127.032542,37.371479],[127.032474,37.371498],[127.032324,37.371523],[127.03222,37.371532],[127.032202,37.371528],[127.032169,37.371518],[127.032135,37.3715],[127.032104,37.371472],[127.032096,37.371464],[127.031935,37.371535],[127.031926,37.371541],[127.031809,37.371628],[127.031748,37.371663],[127.031571,37.371748],[127.031566,37.371747],[127.031563,37.371747],[127.031475,37.371743],[127.031466,37.371744],[127.031397,37.371756],[127.031308,37.371761],[127.031298,37.371765],[127.031233,37.371794],[127.031152,37.371827],[127.031143,37.371831],[127.031136,37.371834],[127.031056,37.371826],[127.030953,37.371816],[127.030938,37.371821],[127.030868,37.37186],[127.030857,37.371866],[127.030772,37.371891],[127.030764,37.371895],[127.030716,37.371916],[127.030697,37.371931],[127.030685,37.371944],[127.030651,37.371986],[127.030604,37.372048],[127.030601,37.372055],[127.030583,37.372073],[127.030577,37.372077],[127.030369,37.372122],[127.030249,37.372102],[127.030233,37.3721],[127.03013,37.372104],[127.030124,37.372104],[127.030047,37.372118],[127.030039,37.372111],[127.030012,37.372099],[127.029996,37.372095],[127.029962,37.372095],[127.029946,37.372099],[127.02991,37.372109],[127.029854,37.372121],[127.029843,37.372124],[127.029811,37.372134],[127.029793,37.37214],[127.029777,37.372134],[127.029748,37.372127],[127.029655,37.372131],[127.029652,37.372131],[127.029619,37.372153],[127.029588,37.372165],[127.029581,37.372169],[127.029529,37.372192],[127.029428,37.37223],[127.02942,37.372235],[127.029409,37.372244],[127.02933,37.372307],[127.029315,37.372317],[127.02926,37.37232],[127.029245,37.372312],[127.029238,37.372304],[127.029208,37.372249],[127.029202,37.372241],[127.029184,37.372211],[127.029172,37.372197],[127.029159,37.372183],[127.029104,37.372137],[127.029086,37.372125],[127.029011,37.372096],[127.028994,37.372086],[127.028948,37.372075],[127.028856,37.372059],[127.028853,37.372057],[127.028827,37.372041],[127.028809,37.37203],[127.028788,37.372022],[127.028746,37.372006],[127.028711,37.371984],[127.028658,37.371951],[127.028641,37.371942],[127.028099,37.371956],[127.027916,37.37196],[127.027913,37.371965],[127.027854,37.372177],[127.027831,37.372263],[127.027775,37.372479],[127.027762,37.372547],[127.027716,37.372774],[127.027715,37.372778],[127.027705,37.372848],[127.027706,37.372866],[127.027725,37.372984],[127.027898,37.374036],[127.027905,37.374092],[127.027944,37.37474],[127.027944,37.374947],[127.027928,37.375299],[127.027915,37.375614],[127.027918,37.375631],[127.027941,37.375739],[127.028005,37.376006],[127.028006,37.376007],[127.02832,37.37658],[127.028345,37.376657],[127.027995,37.377149],[127.027994,37.377155],[127.028013,37.377587],[127.02802,37.377759],[127.028038,37.378272],[127.028044,37.378286],[127.028055,37.378322],[127.028172,37.378484],[127.028175,37.378497],[127.02819,37.379101],[127.028192,37.379173],[127.0282,37.379194],[127.02874,37.379373],[127.029272,37.37955],[127.029276,37.379551],[127.02967,37.379548],[127.029753,37.379542],[127.030707,37.379443],[127.030956,37.379412],[127.031397,37.379362],[127.031405,37.379362],[127.031943,37.3796],[127.031948,37.379621],[127.03195,37.379622],[127.031915,37.379893],[127.031897,37.380028],[127.031898,37.38003],[127.031901,37.380043],[127.03205,37.38021],[127.032163,37.380337],[127.032168,37.38035],[127.032174,37.380362],[127.032277,37.381424],[127.032272,37.381484],[127.032047,37.382176],[127.032057,37.382193],[127.032058,37.382198],[127.0331,37.383059],[127.033105,37.383071],[127.033134,37.383118],[127.033113,37.383614],[127.033117,37.383652],[127.033118,37.383659],[127.033191,37.383903],[127.033227,37.383972],[127.03381,37.384621],[127.033812,37.384623],[127.033821,37.384821],[127.033843,37.385298],[127.033862,37.385389],[127.033873,37.385425],[127.033874,37.385429],[127.033879,37.38546],[127.033908,37.385562],[127.033941,37.38576],[127.033959,37.385867],[127.033959,37.385871],[127.033964,37.385871],[127.034392,37.385913],[127.034925,37.385981],[127.03494,37.385988],[127.035265,37.386326],[127.035352,37.386417],[127.035527,37.386602],[127.035529,37.386605],[127.035423,37.386763],[127.035396,37.386834],[127.035383,37.386867],[127.035184,37.387929],[127.035181,37.387935],[127.035167,37.387971],[127.035025,37.388181],[127.034985,37.38824],[127.03497,37.388262],[127.034896,37.388372],[127.034771,37.388566],[127.034717,37.388664],[127.034672,37.388794],[127.035355,37.388812],[127.035761,37.38892],[127.0361,37.389271],[127.036846,37.389379],[127.036947,37.389433],[127.037297,37.389577],[127.037416,37.389699],[127.037975,37.390271],[127.038416,37.390505],[127.039378,37.390421],[127.039936,37.389829],[127.040775,37.389634],[127.040891,37.389608],[127.041208,37.389426],[127.042237,37.389269],[127.04266,37.389096],[127.043339,37.389047],[127.043548,37.38896]]]}},{"type":"Feature","properties":{"emd_cd":"41135115","full_nm":"경기도 성남시 분당구 운중동","emd_kor_nm":"운중동","emd_eng_nm":"Unjung-dong","name":"운중동","source_file":"data/unjungdong.wfs.xml"},"geometry":{"type":"Polygon","coordinates":[[[127.044998,37.40349],[127.045602,37.403436],[127.046437,37.403493],[127.047095,37.403663],[127.04776,37.403492],[127.049679,37.403527],[127.05068,37.4035],[127.05088,37.403363],[127.051502,37.403219],[127.052295,37.40287],[127.052834,37.402697],[127.05289,37.402709],[127.053325,37.402604],[127.054086,37.402634],[127.054434,37.40241],[127.054948,37.402229],[127.055733,37.402372],[127.056148,37.40243],[127.056666,37.402139],[127.056918,37.401884],[127.057457,37.401563],[127.057561,37.401507],[127.058287,37.401255],[127.058627,37.401271],[127.058726,37.401238],[127.058813,37.401201],[127.059483,37.40097],[127.059569,37.400667],[127.059813,37.400432],[127.060379,37.399961],[127.060994,37.399721],[127.061173,37.399645],[127.061291,37.399568],[127.061643,37.39932],[127.061974,37.399147],[127.062527,37.398854],[127.063194,37.398507],[127.063626,37.398658],[127.064052,37.398617],[127.064428,37.398632],[127.06456,37.398636],[127.064736,37.398613],[127.065703,37.39807],[127.066188,37.398339],[127.067198,37.398114],[127.067871,37.397984],[127.068109,37.398143],[127.068383,37.398194],[127.068928,37.398103],[127.069368,37.397978],[127.069753,37.397782],[127.07044,37.39785],[127.07053,37.39786],[127.071176,37.397799],[127.071737,37.397807],[127.072141,37.397982],[127.072271,37.398018],[127.072633,37.398089],[127.07281,37.398105],[127.073093,37.398107],[127.07369,37.398031],[127.074207,37.397755],[127.074417,37.397733],[127.074634,37.397739],[127.074764,37.397522],[127.074933,37.397479],[127.075352,37.397438],[127.075848,37.397277],[127.075867,37.396935],[127.075869,37.396918],[127.07589,37.396894],[127.076154,37.396602],[127.076186,37.396569],[127.076285,37.396473],[127.076328,37.396416],[127.076346,37.396207],[127.076346,37.395998],[127.076351,37.395914],[127.076359,37.395671],[127.07636,37.395654],[127.076361,37.395643],[127.076362,37.39563],[127.076362,37.395606],[127.076372,37.395605],[127.076569,37.395644],[127.076836,37.395754],[127.077095,37.395817],[127.077284,37.395972],[127.07745,37.39605],[127.077624,37.396165],[127.077845,37.396244],[127.078117,37.396263],[127.07832,37.39643],[127.078575,37.396447],[127.078557,37.396486],[127.078516,37.396549],[127.07857,37.396562],[127.078648,37.396637],[127.078755,37.396644],[127.078919,37.396733],[127.079049,37.396743],[127.079006,37.396912],[127.079201,37.397177],[127.079342,37.397225],[127.07952,37.397369],[127.079729,37.397491],[127.079928,37.397582],[127.080278,37.397703],[127.080539,37.397772],[127.081254,37.398108],[127.082095,37.397507],[127.082576,37.397597],[127.082919,37.397518],[127.083507,37.397069],[127.083796,37.397058],[127.084156,37.397115],[127.084304,37.39721],[127.084595,37.39647],[127.085988,37.392929],[127.085673,37.391692],[127.085579,37.39132],[127.085508,37.39122],[127.085384,37.390875],[127.085234,37.390806],[127.085075,37.390468],[127.085165,37.390363],[127.085011,37.389835],[127.084229,37.387654],[127.083961,37.38764],[127.083571,37.387644],[127.083114,37.387673],[127.082514,37.387818],[127.082227,37.387888],[127.082207,37.387906],[127.082186,37.387925],[127.082067,37.387967],[127.08188,37.387982],[127.081845,37.387985],[127.081745,37.387987],[127.081539,37.387991],[127.081435,37.388008],[127.081333,37.387967],[127.081226,37.387981],[127.081176,37.387938],[127.080916,37.387907],[127.080608,37.387892],[127.080479,37.387867],[127.080423,37.387749],[127.080377,37.387715],[127.080332,37.387683],[127.08014,37.387603],[127.080077,37.387609],[127.08003,37.387818],[127.080056,37.387941],[127.080085,37.388081],[127.079731,37.388069],[127.079581,37.388179],[127.079569,37.388513],[127.07955,37.388521],[127.079518,37.388564],[127.07894,37.38867],[127.077214,37.389002],[127.076261,37.388628],[127.076108,37.388349],[127.076054,37.388306],[127.075961,37.388191],[127.075819,37.38798],[127.075716,37.387857],[127.075695,37.387844],[127.075598,37.387731],[127.075555,37.38768],[127.075699,37.387654],[127.075706,37.387624],[127.075683,37.387591],[127.07568,37.387586],[127.075737,37.387566],[127.075896,37.38739],[127.075747,37.387345],[127.075511,37.387319],[127.075411,37.387282],[127.075383,37.387272],[127.075286,37.387181],[127.075239,37.387138],[127.075217,37.387169],[127.075187,37.387142],[127.074935,37.386675],[127.074933,37.38667],[127.074934,37.385513],[127.07486,37.385328],[127.074851,37.385154],[127.07485,37.385133],[127.074802,37.38498],[127.074765,37.384861],[127.0747,37.384792],[127.07467,37.384778],[127.074641,37.384765],[127.07455,37.384576],[127.074534,37.384541],[127.074528,37.384453],[127.074677,37.384348],[127.074682,37.384345],[127.074709,37.384121],[127.074683,37.383915],[127.074707,37.383843],[127.074669,37.383655],[127.074722,37.383604],[127.07472,37.383577],[127.07472,37.383568],[127.074684,37.383516],[127.07465,37.383466],[127.074666,37.383352],[127.074673,37.3833],[127.074608,37.383166],[127.074565,37.383079],[127.074714,37.382721],[127.074821,37.38259],[127.072854,37.382568],[127.071414,37.383503],[127.069252,37.383746],[127.068748,37.384021],[127.068624,37.384089],[127.068622,37.384551],[127.06862,37.385157],[127.068343,37.385082],[127.068016,37.384994],[127.067917,37.384967],[127.0677,37.38498],[127.067189,37.38501],[127.066863,37.385029],[127.066638,37.385042],[127.066407,37.385056],[127.066191,37.385069],[127.065961,37.385082],[127.065731,37.385098],[127.065506,37.385114],[127.065272,37.38513],[127.065048,37.385054],[127.064854,37.384988],[127.06452,37.384874],[127.064377,37.384826],[127.063296,37.38483],[127.062781,37.384574],[127.062561,37.384478],[127.062262,37.384357],[127.06153,37.383829],[127.061347,37.383535],[127.061146,37.383262],[127.060919,37.383117],[127.060729,37.382993],[127.060227,37.382564],[127.060123,37.382411],[127.060078,37.382165],[127.060052,37.381901],[127.06003,37.381627],[127.0599,37.38109],[127.059894,37.381065],[127.059854,37.381055],[127.05951,37.380987],[127.059176,37.380787],[127.058883,37.380653],[127.058251,37.380785],[127.057719,37.380897],[127.057094,37.381348],[127.056788,37.3813],[127.056163,37.382113],[127.056145,37.382502],[127.055858,37.382618],[127.055682,37.382684],[127.055522,37.382738],[127.055193,37.383151],[127.055167,37.383559],[127.055144,37.383962],[127.054556,37.384433],[127.054222,37.38428],[127.053826,37.384071],[127.053055,37.38404],[127.052819,37.384248],[127.052594,37.384459],[127.052532,37.384817],[127.052426,37.385009],[127.05215,37.385115],[127.051782,37.385593],[127.051752,37.385621],[127.051714,37.385673],[127.051695,37.385949],[127.051599,37.386574],[127.050966,37.386436],[127.050396,37.386323],[127.050012,37.386247],[127.049317,37.386596],[127.049074,37.386816],[127.049021,37.386842],[127.048994,37.386886],[127.048977,37.38691],[127.048688,37.386961],[127.048322,37.386913],[127.047819,37.386993],[127.047401,37.387124],[127.04698,37.387267],[127.046862,37.387561],[127.046323,37.387908],[127.045936,37.388129],[127.045472,37.388583],[127.045094,37.388665],[127.044305,37.388917],[127.043704,37.388888],[127.043548,37.38896],[127.043339,37.389047],[127.04266,37.389096],[127.042237,37.389269],[127.041208,37.389426],[127.040891,37.389608],[127.040775,37.389634],[127.039936,37.389829],[127.039378,37.390421],[127.038416,37.390505],[127.038439,37.390857],[127.038574,37.391334],[127.038733,37.391938],[127.038631,37.392055],[127.038496,37.392226],[127.038507,37.392614],[127.038507,37.392686],[127.038473,37.392776],[127.038372,37.393028],[127.038237,37.393578],[127.038225,37.39365],[127.038214,37.393686],[127.038192,37.394136],[127.038181,37.394208],[127.038452,37.394488],[127.038192,37.394767],[127.038158,37.394965],[127.038102,37.395245],[127.038147,37.395605],[127.038227,37.396101],[127.038215,37.396137],[127.038148,37.396605],[127.03808,37.397047],[127.038069,37.397245],[127.038103,37.397695],[127.038137,37.398209],[127.037991,37.39856],[127.037765,37.398948],[127.03763,37.399317],[127.037483,37.399678],[127.037382,37.400227],[127.037314,37.400453],[127.0371,37.4013],[127.03745,37.401759],[127.037766,37.40193],[127.038026,37.402065],[127.038422,37.402182],[127.038693,37.402254],[127.038806,37.402308],[127.03893,37.402344],[127.039077,37.402362],[127.039122,37.402353],[127.039506,37.402344],[127.03998,37.402326],[127.040624,37.402587],[127.04102,37.402722],[127.041607,37.403073],[127.041765,37.403181],[127.042003,37.403425],[127.042076,37.40346],[127.042567,37.403695],[127.043245,37.403884],[127.044283,37.403784],[127.044998,37.40349]]]}},{"type":"Feature","properties":{"emd_cd":"41135108","full_nm":"경기도 성남시 분당구 판교동","emd_kor_nm":"판교동","emd_eng_nm":"Pangyo-dong","name":"판교동","source_file":"data/pangyodong.wfs.xml"},"geometry":{"type":"Polygon","coordinates":[[[127.094379,37.405186],[127.096929,37.40342],[127.099651,37.400793],[127.100333,37.397572],[127.100359,37.397558],[127.100821,37.395269],[127.10115,37.394588],[127.101544,37.393773],[127.101541,37.391644],[127.102228,37.389509],[127.103063,37.384764],[127.103062,37.384055],[127.103059,37.381643],[127.101916,37.382101],[127.101811,37.382117],[127.101711,37.382118],[127.101552,37.382089],[127.101322,37.382058],[127.101242,37.382077],[127.101172,37.38207],[127.101032,37.382078],[127.100941,37.382094],[127.100901,37.382079],[127.10072,37.382094],[127.100412,37.382108],[127.100426,37.382242],[127.100594,37.382235],[127.100581,37.382436],[127.100529,37.382756],[127.100469,37.382778],[127.100473,37.382859],[127.100325,37.382892],[127.100338,37.383187],[127.100274,37.383678],[127.100311,37.383733],[127.100275,37.383714],[127.100254,37.383704],[127.099945,37.383794],[127.099624,37.383851],[127.099438,37.383894],[127.098936,37.383617],[127.09862,37.383655],[127.098441,37.384067],[127.098188,37.384289],[127.097496,37.384365],[127.096968,37.384408],[127.096545,37.384539],[127.096073,37.3849],[127.095573,37.384778],[127.095258,37.384636],[127.095077,37.384636],[127.095039,37.384638],[127.094871,37.384671],[127.0945,37.384826],[127.093562,37.384637],[127.093434,37.384649],[127.093022,37.384421],[127.092909,37.384359],[127.092354,37.384536],[127.091866,37.384405],[127.091774,37.384577],[127.091623,37.384671],[127.091482,37.384663],[127.09116,37.384697],[127.091075,37.384765],[127.090883,37.384916],[127.090722,37.384891],[127.090457,37.384806],[127.090196,37.384878],[127.089872,37.38448],[127.089608,37.384286],[127.089495,37.38415],[127.089408,37.383938],[127.089357,37.383908],[127.089315,37.383906],[127.089441,37.38381],[127.089546,37.383726],[127.089257,37.383744],[127.089161,37.3837],[127.089089,37.383674],[127.088934,37.383621],[127.088798,37.383576],[127.088778,37.383569],[127.088692,37.383401],[127.088473,37.383275],[127.088432,37.383251],[127.088064,37.383275],[127.087844,37.383288],[127.087655,37.383309],[127.087194,37.383358],[127.087166,37.383362],[127.087114,37.383367],[127.087102,37.383368],[127.087152,37.383384],[127.087204,37.383403],[127.087112,37.383452],[127.087073,37.383474],[127.087018,37.383622],[127.086827,37.384115],[127.086852,37.384261],[127.085501,37.384188],[127.085467,37.384141],[127.085459,37.384105],[127.085417,37.384104],[127.085366,37.384185],[127.085414,37.384335],[127.085487,37.384304],[127.085501,37.384351],[127.085455,37.384453],[127.085491,37.38448],[127.085518,37.3845],[127.085594,37.38452],[127.085578,37.384564],[127.085573,37.384579],[127.085605,37.384615],[127.085652,37.38462],[127.085662,37.38461],[127.085761,37.384666],[127.085832,37.384683],[127.085828,37.384693],[127.085883,37.384713],[127.085893,37.384717],[127.085949,37.384813],[127.085956,37.384828],[127.085965,37.384861],[127.085968,37.384922],[127.085969,37.38494],[127.085967,37.385004],[127.085966,37.385009],[127.085954,37.385068],[127.085925,37.385131],[127.085896,37.385183],[127.085892,37.385191],[127.085886,37.385198],[127.085841,37.385251],[127.085653,37.385278],[127.085637,37.385286],[127.085557,37.385326],[127.085419,37.385347],[127.084911,37.385423],[127.085059,37.385813],[127.084715,37.38619],[127.084979,37.386979],[127.08502,37.387102],[127.084933,37.387141],[127.084329,37.387659],[127.084229,37.387654],[127.085011,37.389835],[127.085165,37.390363],[127.085075,37.390468],[127.085234,37.390806],[127.085384,37.390875],[127.085508,37.39122],[127.085579,37.39132],[127.085673,37.391692],[127.085988,37.392929],[127.084595,37.39647],[127.084304,37.39721],[127.084452,37.397304],[127.084602,37.397534],[127.084411,37.397944],[127.084728,37.398373],[127.08524,37.398537],[127.085399,37.398666],[127.085405,37.398858],[127.085911,37.399218],[127.086402,37.399943],[127.08721,37.400372],[127.08747,37.400263],[127.0879,37.400342],[127.088647,37.400619],[127.088759,37.400861],[127.08884,37.401256],[127.088754,37.401635],[127.088738,37.402122],[127.088692,37.402504],[127.089062,37.403087],[127.089611,37.403379],[127.089821,37.403486],[127.090001,37.403615],[127.09011,37.403726],[127.090396,37.403756],[127.090537,37.403766],[127.091075,37.40397],[127.091805,37.404288],[127.091911,37.404244],[127.092242,37.404108],[127.092436,37.404101],[127.092645,37.404302],[127.092683,37.404584],[127.092693,37.40463],[127.092804,37.404789],[127.092929,37.40497],[127.092951,37.405004],[127.094191,37.405368],[127.094379,37.405186]]]}},{"type":"Feature","properties":{"emd_cd":"41135118","full_nm":"경기도 성남시 분당구 하산운동","emd_kor_nm":"하산운동","emd_eng_nm":"Hasanun-dong","name":"하산운동","source_file":"data/hasanundong.wfs.xml"},"geometry":{"type":"Polygon","coordinates":[[[127.084229,37.387654],[127.084329,37.387659],[127.084933,37.387141],[127.08502,37.387102],[127.084979,37.386979],[127.084715,37.38619],[127.085059,37.385813],[127.084911,37.385423],[127.085419,37.385347],[127.085557,37.385326],[127.085637,37.385286],[127.085653,37.385278],[127.085841,37.385251],[127.085886,37.385198],[127.085892,37.385191],[127.085896,37.385183],[127.085925,37.385131],[127.085954,37.385068],[127.085966,37.385009],[127.085967,37.385004],[127.085969,37.38494],[127.085968,37.384922],[127.085965,37.384861],[127.085956,37.384828],[127.085949,37.384813],[127.085893,37.384717],[127.085883,37.384713],[127.085828,37.384693],[127.085832,37.384683],[127.085761,37.384666],[127.085662,37.38461],[127.085652,37.38462],[127.085605,37.384615],[127.085573,37.384579],[127.085578,37.384564],[127.085594,37.38452],[127.085518,37.3845],[127.085491,37.38448],[127.085455,37.384453],[127.085501,37.384351],[127.085487,37.384304],[127.085414,37.384335],[127.085366,37.384185],[127.085417,37.384104],[127.085459,37.384105],[127.085467,37.384141],[127.085501,37.384188],[127.086852,37.384261],[127.086827,37.384115],[127.087018,37.383622],[127.087073,37.383474],[127.087112,37.383452],[127.087204,37.383403],[127.087152,37.383384],[127.087102,37.383368],[127.086592,37.383211],[127.086565,37.383203],[127.086447,37.383203],[127.086417,37.383193],[127.086427,37.383154],[127.086393,37.383144],[127.086315,37.38309],[127.085509,37.382658],[127.084786,37.382646],[127.084478,37.382548],[127.084447,37.382538],[127.084081,37.382418],[127.083896,37.382472],[127.08373,37.382406],[127.083243,37.382043],[127.082932,37.381781],[127.082253,37.381326],[127.081833,37.380932],[127.080896,37.379992],[127.080235,37.379207],[127.079827,37.378865],[127.079838,37.378479],[127.079762,37.3784],[127.079539,37.37818],[127.079398,37.378139],[127.079326,37.378116],[127.079212,37.378079],[127.079116,37.378048],[127.079064,37.377849],[127.079047,37.377757],[127.079042,37.377697],[127.079016,37.377372],[127.078917,37.376882],[127.078808,37.376505],[127.078783,37.376421],[127.078458,37.376123],[127.078476,37.376061],[127.078688,37.375245],[127.079104,37.374761],[127.079026,37.374692],[127.078329,37.374374],[127.078101,37.374499],[127.078048,37.374546],[127.077776,37.374569],[127.077566,37.374593],[127.07745,37.374639],[127.077095,37.374789],[127.077055,37.374801],[127.076734,37.374897],[127.076649,37.374921],[127.076428,37.375027],[127.076406,37.375038],[127.076168,37.375253],[127.076105,37.37531],[127.076032,37.375375],[127.075632,37.375528],[127.075471,37.375586],[127.07536,37.375232],[127.075347,37.37519],[127.075258,37.375206],[127.074303,37.375405],[127.074127,37.375881],[127.074048,37.376069],[127.073838,37.376446],[127.073601,37.376829],[127.073348,37.37722],[127.072578,37.37731],[127.072272,37.377428],[127.071897,37.377627],[127.071222,37.377824],[127.070726,37.378254],[127.070184,37.378471],[127.069939,37.378644],[127.069666,37.378756],[127.069279,37.378873],[127.068952,37.378997],[127.068446,37.379155],[127.067931,37.379245],[127.067682,37.379416],[127.067468,37.379461],[127.066958,37.37957],[127.06613,37.379437],[127.065759,37.379576],[127.065219,37.379833],[127.064477,37.379628],[127.064342,37.379442],[127.064012,37.37942],[127.063677,37.379395],[127.063391,37.379416],[127.062664,37.379718],[127.062424,37.379861],[127.062159,37.37997],[127.061535,37.380227],[127.060662,37.380946],[127.059934,37.381059],[127.059918,37.381061],[127.059894,37.381065],[127.0599,37.38109],[127.06003,37.381627],[127.060052,37.381901],[127.060078,37.382165],[127.060123,37.382411],[127.060227,37.382564],[127.060729,37.382993],[127.060919,37.383117],[127.061146,37.383262],[127.061347,37.383535],[127.06153,37.383829],[127.062262,37.384357],[127.062561,37.384478],[127.062781,37.384574],[127.063296,37.38483],[127.064377,37.384826],[127.06452,37.384874],[127.064854,37.384988],[127.065048,37.385054],[127.065272,37.38513],[127.065506,37.385114],[127.065731,37.385098],[127.065961,37.385082],[127.066191,37.385069],[127.066407,37.385056],[127.066638,37.385042],[127.066863,37.385029],[127.067189,37.38501],[127.0677,37.38498],[127.067917,37.384967],[127.068016,37.384994],[127.068343,37.385082],[127.06862,37.385157],[127.068622,37.384551],[127.068624,37.384089],[127.068748,37.384021],[127.069252,37.383746],[127.071414,37.383503],[127.072854,37.382568],[127.074821,37.38259],[127.074714,37.382721],[127.074565,37.383079],[127.074608,37.383166],[127.074673,37.3833],[127.074666,37.383352],[127.07465,37.383466],[127.074684,37.383516],[127.07472,37.383568],[127.07472,37.383577],[127.074722,37.383604],[127.074669,37.383655],[127.074707,37.383843],[127.074683,37.383915],[127.074709,37.384121],[127.074682,37.384345],[127.074677,37.384348],[127.074528,37.384453],[127.074534,37.384541],[127.07455,37.384576],[127.074641,37.384765],[127.07467,37.384778],[127.0747,37.384792],[127.074765,37.384861],[127.074802,37.38498],[127.07485,37.385133],[127.074851,37.385154],[127.07486,37.385328],[127.074934,37.385513],[127.074933,37.38667],[127.074935,37.386675],[127.075187,37.387142],[127.075217,37.387169],[127.075239,37.387138],[127.075286,37.387181],[127.075383,37.387272],[127.075411,37.387282],[127.075511,37.387319],[127.075747,37.387345],[127.075896,37.38739],[127.075737,37.387566],[127.07568,37.387586],[127.075683,37.387591],[127.075706,37.387624],[127.075699,37.387654],[127.075555,37.38768],[127.075598,37.387731],[127.075695,37.387844],[127.075716,37.387857],[127.075819,37.38798],[127.075961,37.388191],[127.076054,37.388306],[127.076108,37.388349],[127.076261,37.388628],[127.077214,37.389002],[127.07894,37.38867],[127.079518,37.388564],[127.07955,37.388521],[127.079569,37.388513],[127.079581,37.388179],[127.079731,37.388069],[127.080085,37.388081],[127.080056,37.387941],[127.08003,37.387818],[127.080077,37.387609],[127.08014,37.387603],[127.080332,37.387683],[127.080377,37.387715],[127.080423,37.387749],[127.080479,37.387867],[127.080608,37.387892],[127.080916,37.387907],[127.081176,37.387938],[127.081226,37.387981],[127.081333,37.387967],[127.081435,37.388008],[127.081539,37.387991],[127.081745,37.387987],[127.081845,37.387985],[127.08188,37.387982],[127.082067,37.387967],[127.082186,37.387925],[127.082207,37.387906],[127.082227,37.387888],[127.082514,37.387818],[127.083114,37.387673],[127.083571,37.387644],[127.083961,37.38764],[127.084229,37.387654]]]}}]}